[{"OBJECT_NAME":"STARLINK-6323","OBJECT_ID":"2023-065X","EPOCH":"2026-03-09T11:06:41.363136","MEAN_MOTION":15.02589583,"ECCENTRICITY":0.00018118,"INCLINATION":43.0041,"RA_OF_ASC_NODE":211.3152,"ARG_OF_PERICENTER":271.8883,"MEAN_ANOMALY":88.1752,"EPHEMERIS_TYPE":0,"CLASSIFICATION_TYPE":"U","NORAD_CAT_ID":56524,"ELEMENT_SET_NO":999,"REV_AT_EPOCH":15659,"BSTAR":-0.0010272179,"MEAN_MOTION_DOT":-0.00014072,"MEAN_MOTION_DDOT":0},{"OBJECT_NAME":"CICERO 3","OBJECT_ID":"2017-042AA","EPOCH":"2026-03-09T22:34:09.559488","MEAN_MOTION":15.06999011,"ECCENTRICITY":0.00123402,"INCLINATION":97.4153,"RA_OF_ASC_NODE":238.2133,"ARG_OF_PERICENTER":85.148,"MEAN_ANOMALY":275.1157,"EPHEMERIS_TYPE":0,"CLASSIFICATION_TYPE":"U","NORAD_CAT_ID":42849,"ELEMENT_SET_NO":999,"REV_AT_EPOCH":47226,"BSTAR":0.00039473976,"MEAN_MOTION_DOT":5.861e-5,"MEAN_MOTION_DDOT":0}]
